norad_id,name,regime,epoch,line1,line2,inclination,eccentricity,mean_motion,raan,arg_pericenter,mean_anomaly
28082,CHINASAT 20,EGO,05054.55817767,1 28082U 03052A   05054.55817767  .00000000  00000-0  10000-3 0  4089\,2 28082 000.1551 092.7437 0004705 264.2253 100.3338 01.00264396  4739,0.1551,0.0004705,1.00264396,92.7437,264.2253,100.3338
28082,CHINASAT 20,EGO,05054.66784571,1 28082U 03052A   05054.66784571 -.00000319  00000-0  10000-3 0  4070\,2 28082 000.1533 093.6435 0004411 266.0922 137.1823 01.00270706  4733,0.1533,0.0004411,1.00270706,93.6435,266.0922,137.1823
28082,CHINASAT 20,EGO,05055.51035089,1 28082U 03052A   05055.51035089 -.00000318  00000-0  10000-3 0  4099\,2 28082 000.1580 092.5493 0004505 266.5813 081.9264 01.00270735  4743,0.158,0.0004505,1.00270735,92.5493,266.5813,81.9264
28082,CHINASAT 20,EGO,05056.49435097,1 28082U 03052A   05056.49435097 -.00000317  00000-0  10000-3 0  4145\,2 28082 000.1159 074.7890 0004658 296.7911 064.6908 01.00277101  4759,0.1159,0.0004658,1.00277101,74.789,296.7911,64.6908
28082,CHINASAT 20,EGO,05056.70000000,1 28082U 03052A   05056.70000000 -.00000317  00000-0  00000+0 0  4168\,2 28082 000.1460 267.2680 0006357 115.9050 127.3210 01.00280178  4755,0.146,0.0006357,1.00280178,267.268,115.905,127.321
28082,CHINASAT 20,EGO,05057.71921645,1 28082U 03052A   05057.71921645 -.00000316  00000-0  00000+0 0  4177\,2 28082 000.1455 271.5868 0005980 098.2007 148.6675 01.00282533  4760,0.1455,0.000598,1.00282533,271.5868,98.2007,148.6675
28082,CHINASAT 20,EGO,05057.88934735,1 28082U 03052A   05057.88934735 -.00000315  00000-0  00000+0 0  4189\,2 28082 000.0712 304.6994 0004621 074.1519 201.0205 01.00277408  4763,0.0712,0.0004621,1.00277408,304.6994,74.1519,201.0205
28082,CHINASAT 20,EGO,05058.79242922,1 28082U 03052A   05058.79242922 -.00000315  00000-0  00000+0 0  4191\,2 28082 000.1508 281.2090 0006187 092.1759 172.5025 01.00283689  4770,0.1508,0.0006187,1.00283689,281.209,92.1759,172.5025
28082,CHINASAT 20,EGO,05058.95349118,1 28082U 03052A   05058.95349118 -.00000313  00000-0  00000+0 0  4204\,2 28082 000.1511 275.9168 0005060 105.6293 222.4634 01.00271769  4779,0.1511,0.000506,1.00271769,275.9168,105.6293,222.4634
28082,CHINASAT 20,EGO,05059.74519264,1 28082U 03052A   05059.74519264 -.00000314  00000-0  00000+0 0  4215\,2 28082 000.1506 274.4827 0005956 100.9745 154.3879 01.00279042  4780,0.1506,0.0005956,1.00279042,274.4827,100.9745,154.3879
28082,CHINASAT 20,EGO,05060.43463525,1 28082U 03052A   05060.43463525 -.00000314  00000-0  00000+0 0  4222\,2 28082 000.1505 280.9960 0006199 101.4241 036.3089 01.00277760  4794,0.1505,0.0006199,1.0027776,280.996,101.4241,36.3089
28082,CHINASAT 20,EGO,05061.44560980,1 28082U 03052A   05061.44560980 -.00000316  00000-0  00000+0 0  4230\,2 28082 000.1550 282.6485 0006367 101.0611 039.9874 01.00276921  4800,0.155,0.0006367,1.00276921,282.6485,101.0611,39.9874
28082,CHINASAT 20,EGO,05061.92065730,1 28082U 03052A   05061.92065730 -.00000318  00000-0  00000+0 0  4249\,2 28082 000.1444 278.1751 0005967 098.0614 218.9719 01.00277890  4804,0.1444,0.0005967,1.0027789,278.1751,98.0614,218.9719
28082,CHINASAT 20,EGO,05062.42614022,1 28082U 03052A   05062.42614022 -.00000319  00000-0  00000+0 0  4251\,2 28082 000.1459 280.4051 0006184 100.9967 036.2752 01.00276939  4817,0.1459,0.0006184,1.00276939,280.4051,100.9967,36.2752
28082,CHINASAT 20,EGO,05062.69045922,1 28082U 03052A   05062.69045922 -.00000320  00000-0  00000+0 0  4260\,2 28082 000.1436 276.9059 0006007 101.0570 135.1425 01.00277312  4818,0.1436,0.0006007,1.00277312,276.9059,101.057,135.1425
28082,CHINASAT 20,EGO,05063.68865457,1 28082U 03052A   05063.68865457 -.00000325  00000-0  00000+0 0  4279\,2 28082 000.1417 279.3361 0005949 101.1416 132.9710 01.00276219  4822,0.1417,0.0005949,1.00276219,279.3361,101.1416,132.971
28082,CHINASAT 20,EGO,05064.88199253,1 28082U 03052A   05064.88199253 -.00000331 +00000-0 +00000-0 0 04285\,2 28082 000.1429 280.8590 0006137 100.8208 202.5511 01.00275163004832,0.1429,0.0006137,1.00275163,280.859,100.8208,202.5511
28082,CHINASAT 20,EGO,05065.32756884,1 28082U 03052A   05065.32756884 -.00000333 +00000-0 +00000-0 0 04297\,2 28082 000.1409 280.7441 0006148 100.9823 003.3566 01.00274959004840,0.1409,0.0006148,1.00274959,280.7441,100.9823,3.3566
28082,CHINASAT 20,EGO,05066.74139756,1 28082U 03052A   05066.74139756 -.00000338  00000-0  00000+0 0  4291\,2 28082 000.1371 280.8421 0006158 100.9783 153.6502 01.00274335  4851,0.1371,0.0006158,1.00274335,280.8421,100.9783,153.6502
28082,CHINASAT 20,EGO,05067.85424214,1 28082U 03052A   05067.85424214 -.00000340 +00000-0 +00000-0 0 04317\,2 28082 000.1337 280.6610 0006158 101.4313 195.1077 01.00273796004865,0.1337,0.0006158,1.00273796,280.661,101.4313,195.1077
28082,CHINASAT 20,EGO,05068.69001694,1 28082U 03052A   05068.69001694 -.00000340 +00000-0 +00000-0 0 04324\,2 28082 000.1318 280.6630 0006158 101.5281 136.7163 01.00273376004873,0.1318,0.0006158,1.00273376,280.663,101.5281,136.7163
28082,CHINASAT 20,EGO,05069.48237652,1 28082U 03052A   05069.48237652 -.00000339  00000-0  00000+0 0  4313\,2 28082 000.1300 280.5197 0006144 101.7435 062.6771 01.00272953  4882,0.13,0.0006144,1.00272953,280.5197,101.7435,62.6771
28082,CHINASAT 20,EGO,05070.84384650,1 28082U 03052A   05070.84384650 -.00000336  00000-0  00000+0 0  4324\,2 28082 000.1263 280.4530 0006134 101.9452 194.0161 01.00272273  4899,0.1263,0.0006134,1.00272273,280.453,101.9452,194.0161
28082,CHINASAT 20,EGO,05070.86909868,1 28082U 03052A   05070.86909868 -.00000336 +00000-0 +00000-0 0 04332\,2 28082 000.1262 280.4671 0006134 101.9303 203.1325 01.00272261004890,0.1262,0.0006134,1.00272261,280.4671,101.9303,203.1325
28082,CHINASAT 20,EGO,05071.86657571,1 28082U 03052A   05071.86657571 -.00000333  00000-0  00000+0 0  4330\,2 28082 000.1238 280.6979 0006121 101.5624 203.3436 01.00271741  4903,0.1238,0.0006121,1.00271741,280.6979,101.5624,203.3436
28082,CHINASAT 20,EGO,05072.63218875,1 28082U 03052A   05072.63218875 -.00000332 +00000-0 +00000-0 0 04347\,2 28082 000.1218 280.8116 0006136 101.6344 119.5326 01.00271382004910,0.1218,0.0006136,1.00271382,280.8116,101.6344,119.5326
28082,CHINASAT 20,EGO,05073.74387359,1 28082U 03052A   05073.74387359 -.00000329  00000-0  00000+0 0  4349\,2 28082 000.1183 280.3476 0006154 102.2283 160.7016 01.00270844  4921,0.1183,0.0006154,1.00270844,280.3476,102.2283,160.7016
28082,CHINASAT 20,EGO,05074.38755868,1 28082U 03052A   05074.38755868 -.00000328 +00000-0 +00000-0 0 04355\,2 28082 000.1163 280.0198 0006174 102.6274 032.9896 01.00270563004938,0.1163,0.0006174,1.00270563,280.0198,102.6274,32.9896
28082,CHINASAT 20,EGO,05074.86821936,1 28082U 03052A   05074.86821936 -.00000327  00000-0  00000+0 0  4356\,2 28082 000.1154 280.0372 0006184 102.5895 206.5190 01.00270328  4936,0.1154,0.0006184,1.00270328,280.0372,102.5895,206.519
28082,CHINASAT 20,EGO,05075.78758208,1 28082U 03052A   05075.78758208 -.00000327 +00000-0 +00000-0 0 04361\,2 28082 000.1129 279.9457 0006202 102.8199 178.2520 01.00269913004941,0.1129,0.0006202,1.00269913,279.9457,102.8199,178.252
28082,CHINASAT 20,EGO,05075.89378306,1 28082U 03052A   05075.89378306 -.00000327  00000-0  00000+0 0  4369\,2 28082 000.1127 279.9772 0006201 102.7902 216.5867 01.00269865  4945,0.1127,0.0006201,1.00269865,279.9772,102.7902,216.5867
28082,CHINASAT 20,EGO,05076.62509882,1 28082U 03052A   05076.62509882 -.00000327 +00000-0 +00000-0 0 04378\,2 28082 000.1108 280.1005 0006212 102.5301 120.7144 01.00269559004955,0.1108,0.0006212,1.00269559,280.1005,102.5301,120.7144
28082,CHINASAT 20,EGO,05077.24460986,1 28082U 03052A   05077.24460986 -.00000327  00000-0  00000+0 0  4377\,2 28082 000.1091 280.0558 0006222 102.4546 344.4647 01.00269282  4966,0.1091,0.0006222,1.00269282,280.0558,102.4546,344.4647
28082,CHINASAT 20,EGO,05077.63396413,1 28082U 03052A   05077.63396413 -.00000327 +00000-0 +00000-0 0 04385\,2 28082 000.1081 280.0620 0006222 102.4599 125.0012 01.00269106004967,0.1081,0.0006222,1.00269106,280.062,102.4599,125.0012
28082,CHINASAT 20,EGO,05078.54108924,1 28082U 03052A   05078.54108924 -.00000326  00000-0  00000+0 0  4382\,2 28082 000.1059 280.1986 0006223 102.6446 092.1311 01.00268712  4971,0.1059,0.0006223,1.00268712,280.1986,102.6446,92.1311
28082,CHINASAT 20,EGO,05079.57806568,1 28082U 03052A   05079.57806568 -.00000326  00000-0  00000+0 0  4396\,2 28082 000.1034 280.0650 0006232 103.3177 105.9144 01.00268262  4988,0.1034,0.0006232,1.00268262,280.065,103.3177,105.9144
28082,CHINASAT 20,EGO,05080.66865220,1 28082U 03052A   05080.66865220 -.00000325  00000-0  00000+0 0  4409\,2 28082 000.1003 279.8937 0006241 103.0149 140.0621 01.00267789  4998,0.1003,0.0006241,1.00267789,279.8937,103.0149,140.0621
28082,CHINASAT 20,EGO,05081.66966841,1 28082U 03052A   05081.66966841 -.00000324 +00000-0 +00000-0 0 04423\,2 28082 000.0979 280.2330 0006252 102.7599 141.3166 01.00267348005001,0.0979,0.0006252,1.00267348,280.233,102.7599,141.3166
28082,CHINASAT 20,EGO,05082.34434372,1 28082U 03052A   05082.34434372 -.00000322 +00000-0 +00000-0 0 04426\,2 28082 000.0961 280.1752 0006272 102.8819 024.7902 01.00267048005017,0.0961,0.0006272,1.00267048,280.1752,102.8819,24.7902
28082,CHINASAT 20,EGO,05082.94181699,1 28082U 03052A   05082.94181699  .00000000  00000-0  10000-3 0  4429\,2 28082 000.0933 279.9022 0006513 105.3056 238.3027 01.00263132  5012,0.0933,0.0006513,1.00263132,279.9022,105.3056,238.3027
28082,CHINASAT 20,EGO,05083.33688100,1 28082U 03052A   05083.33688100 -.00000320  00000-0  00000+0 0  4434\,2 28082 000.0933 280.4115 0006289 102.7793 022.9322 01.00266613  5024,0.0933,0.0006289,1.00266613,280.4115,102.7793,22.9322
28082,CHINASAT 20,EGO,05084.63984358,1 28082U 03052A   05084.63984358 -.00000316  00000-0  00000+0 0  4448\,2 28082 000.0910 280.3377 0006260 102.9696 133.1450 01.00266061  5036,0.091,0.000626,1.00266061,280.3377,102.9696,133.145
